[{"OBJECT_NAME":"STARLINK-5123","OBJECT_ID":"2022-125R","EPOCH":"2025-10-04T12:05:49.272864","MEAN_MOTION":15.08833172,"ECCENTRICITY":0.0001641,"INCLINATION":53.2165,"RA_OF_ASC_NODE":200.2633,"ARG_OF_PERICENTER":90.3302,"MEAN_ANOMALY":269.7878,"EPHEMERIS_TYPE":0,"CLASSIFICATION_TYPE":"U","NORAD_CAT_ID":53979,"ELEMENT_SET_NO":999,"REV_AT_EPOCH":16581,"BSTAR":-5.4517e-5,"MEAN_MOTION_DOT":-1.155e-5,"MEAN_MOTION_DDOT":0},{"OBJECT_NAME":"STARLINK-5133","OBJECT_ID":"2022-125S","EPOCH":"2025-10-04T19:25:36.713280","MEAN_MOTION":15.08841551,"ECCENTRICITY":0.0001378,"INCLINATION":53.2172,"RA_OF_ASC_NODE":198.6156,"ARG_OF_PERICENTER":101.9666,"MEAN_ANOMALY":258.1481,"EPHEMERIS_TYPE":0,"CLASSIFICATION_TYPE":"U","NORAD_CAT_ID":53980,"ELEMENT_SET_NO":999,"REV_AT_EPOCH":16586,"BSTAR":-0.00016081,"MEAN_MOTION_DOT":-2.846e-5,"MEAN_MOTION_DDOT":0},{"OBJECT_NAME":"STARLINK-5149","OBJECT_ID":"2022-125T","EPOCH":"2025-10-04T17:49:33.826368","MEAN_MOTION":15.08841263,"ECCENTRICITY":0.0001536,"INCLINATION":53.217,"RA_OF_ASC_NODE":183.9706,"ARG_OF_PERICENTER":84.7622,"MEAN_ANOMALY":275.3545,"EPHEMERIS_TYPE":0,"CLASSIFICATION_TYPE":"U","NORAD_CAT_ID":53981,"ELEMENT_SET_NO":999,"REV_AT_EPOCH":16606,"BSTAR":-1.298e-5,"MEAN_MOTION_DOT":-4.95e-6,"MEAN_MOTION_DDOT":0},{"OBJECT_NAME":"STARLINK-5120","OBJECT_ID":"2022-125U","EPOCH":"2025-10-03T01:10:39.320544","MEAN_MOTION":15.08838289,"ECCENTRICITY":0.00012882,"INCLINATION":53.2174,"RA_OF_ASC_NODE":201.8351,"ARG_OF_PERICENTER":92.6552,"MEAN_ANOMALY":267.4588,"EPHEMERIS_TYPE":0,"CLASSIFICATION_TYPE":"U","NORAD_CAT_ID":53982,"ELEMENT_SET_NO":999,"REV_AT_EPOCH":16565,"BSTAR":4.0524945e-5,"MEAN_MOTION_DOT":3.57e-6,"MEAN_MOTION_DDOT":0},{"OBJECT_NAME":"STARLINK-5103","OBJECT_ID":"2022-125V","EPOCH":"2025-10-04T11:38:38.175648","MEAN_MOTION":15.08835571,"ECCENTRICITY":0.0001575,"INCLINATION":53.2149,"RA_OF_ASC_NODE":185.1852,"ARG_OF_PERICENTER":87.6742,"MEAN_ANOMALY":272.4431,"EPHEMERIS_TYPE":0,"CLASSIFICATION_TYPE":"U","NORAD_CAT_ID":53983,"ELEMENT_SET_NO":999,"REV_AT_EPOCH":16602,"BSTAR":1.3611e-5,"MEAN_MOTION_DOT":-7.1e-7,"MEAN_MOTION_DDOT":0},{"OBJECT_NAME":"STARLINK-5142","OBJECT_ID":"2022-125W","EPOCH":"2025-10-04T18:46:35.954112","MEAN_MOTION":15.08849082,"ECCENTRICITY":0.0001475,"INCLINATION":53.2162,"RA_OF_ASC_NODE":194.1706,"ARG_OF_PERICENTER":89.8617,"MEAN_ANOMALY":270.2544,"EPHEMERIS_TYPE":0,"CLASSIFICATION_TYPE":"U","NORAD_CAT_ID":53984,"ELEMENT_SET_NO":999,"REV_AT_EPOCH":16592,"BSTAR":0.0002187,"MEAN_MOTION_DOT":3.195e-5,"MEAN_MOTION_DDOT":0},{"OBJECT_NAME":"STARLINK-5147","OBJECT_ID":"2022-125X","EPOCH":"2025-10-03T12:44:53.237472","MEAN_MOTION":15.08842784,"ECCENTRICITY":0.00015604,"INCLINATION":53.2169,"RA_OF_ASC_NODE":199.8627,"ARG_OF_PERICENTER":108.0171,"MEAN_ANOMALY":252.0991,"EPHEMERIS_TYPE":0,"CLASSIFICATION_TYPE":"U","NORAD_CAT_ID":53985,"ELEMENT_SET_NO":999,"REV_AT_EPOCH":16573,"BSTAR":8.8669066e-5,"MEAN_MOTION_DOT":1.124e-5,"MEAN_MOTION_DDOT":0},{"OBJECT_NAME":"STARLINK-5119","OBJECT_ID":"2022-125Y","EPOCH":"2025-10-04T17:38:58.483968","MEAN_MOTION":15.08802424,"ECCENTRICITY":0.0001292,"INCLINATION":53.2169,"RA_OF_ASC_NODE":183.9081,"ARG_OF_PERICENTER":84.0493,"MEAN_ANOMALY":276.0646,"EPHEMERIS_TYPE":0,"CLASSIFICATION_TYPE":"U","NORAD_CAT_ID":53986,"ELEMENT_SET_NO":999,"REV_AT_EPOCH":16605,"BSTAR":0.00055207,"MEAN_MOTION_DOT":8.5e-5,"MEAN_MOTION_DDOT":0},{"OBJECT_NAME":"STARLINK-5113","OBJECT_ID":"2022-125AA","EPOCH":"2025-10-03T04:32:02.255136","MEAN_MOTION":15.08838079,"ECCENTRICITY":0.00017351,"INCLINATION":53.2185,"RA_OF_ASC_NODE":201.2811,"ARG_OF_PERICENTER":84.0709,"MEAN_ANOMALY":276.0481,"EPHEMERIS_TYPE":0,"CLASSIFICATION_TYPE":"U","NORAD_CAT_ID":53988,"ELEMENT_SET_NO":999,"REV_AT_EPOCH":16567,"BSTAR":0.00014111703,"MEAN_MOTION_DOT":1.958e-5,"MEAN_MOTION_DDOT":0},{"OBJECT_NAME":"STARLINK-5118","OBJECT_ID":"2022-125AD","EPOCH":"2025-10-04T18:21:22.487904","MEAN_MOTION":15.08857656,"ECCENTRICITY":8.5e-5,"INCLINATION":53.2157,"RA_OF_ASC_NODE":184.0265,"ARG_OF_PERICENTER":76.1969,"MEAN_ANOMALY":283.9118,"EPHEMERIS_TYPE":0,"CLASSIFICATION_TYPE":"U","NORAD_CAT_ID":53991,"ELEMENT_SET_NO":999,"REV_AT_EPOCH":16605,"BSTAR":-0.00041236,"MEAN_MOTION_DOT":-6.847e-5,"MEAN_MOTION_DDOT":0},{"OBJECT_NAME":"STARLINK-5108","OBJECT_ID":"2022-125AE","EPOCH":"2025-10-04T18:25:22.653120","MEAN_MOTION":15.08838356,"ECCENTRICITY":0.0001686,"INCLINATION":53.2171,"RA_OF_ASC_NODE":194.0814,"ARG_OF_PERICENTER":85.9015,"MEAN_ANOMALY":274.2169,"EPHEMERIS_TYPE":0,"CLASSIFICATION_TYPE":"U","NORAD_CAT_ID":53992,"ELEMENT_SET_NO":999,"REV_AT_EPOCH":16591,"BSTAR":9.257e-5,"MEAN_MOTION_DOT":1.185e-5,"MEAN_MOTION_DDOT":0},{"OBJECT_NAME":"STARLINK-5121","OBJECT_ID":"2022-125AF","EPOCH":"2025-10-03T11:39:12.640608","MEAN_MOTION":15.08849724,"ECCENTRICITY":0.00014104,"INCLINATION":53.2166,"RA_OF_ASC_NODE":194.5931,"ARG_OF_PERICENTER":86.7452,"MEAN_ANOMALY":273.3701,"EPHEMERIS_TYPE":0,"CLASSIFICATION_TYPE":"U","NORAD_CAT_ID":53993,"ELEMENT_SET_NO":999,"REV_AT_EPOCH":16579,"BSTAR":0.00020202378,"MEAN_MOTION_DOT":2.93e-5,"MEAN_MOTION_DDOT":0},{"OBJECT_NAME":"STARLINK-5125","OBJECT_ID":"2022-125AG","EPOCH":"2025-10-04T18:09:27.725760","MEAN_MOTION":15.08827991,"ECCENTRICITY":0.0001704,"INCLINATION":53.216,"RA_OF_ASC_NODE":194.0137,"ARG_OF_PERICENTER":89.2414,"MEAN_ANOMALY":270.8774,"EPHEMERIS_TYPE":0,"CLASSIFICATION_TYPE":"U","NORAD_CAT_ID":53994,"ELEMENT_SET_NO":999,"REV_AT_EPOCH":16592,"BSTAR":4.6712e-5,"MEAN_MOTION_DOT":4.55e-6,"MEAN_MOTION_DDOT":0},{"OBJECT_NAME":"STARLINK-5097","OBJECT_ID":"2022-125AH","EPOCH":"2025-10-04T11:58:31.304352","MEAN_MOTION":15.0884484,"ECCENTRICITY":0.0001989,"INCLINATION":53.2161,"RA_OF_ASC_NODE":195.2517,"ARG_OF_PERICENTER":81.3951,"MEAN_ANOMALY":278.7266,"EPHEMERIS_TYPE":0,"CLASSIFICATION_TYPE":"U","NORAD_CAT_ID":53995,"ELEMENT_SET_NO":999,"REV_AT_EPOCH":16587,"BSTAR":-0.00029995,"MEAN_MOTION_DOT":-5.06e-5,"MEAN_MOTION_DDOT":0},{"OBJECT_NAME":"STARLINK-5131","OBJECT_ID":"2022-125AJ","EPOCH":"2025-10-04T11:42:36.841824","MEAN_MOTION":15.08840624,"ECCENTRICITY":0.0001403,"INCLINATION":53.2172,"RA_OF_ASC_NODE":195.1758,"ARG_OF_PERICENTER":87.3302,"MEAN_ANOMALY":272.785,"EPHEMERIS_TYPE":0,"CLASSIFICATION_TYPE":"U","NORAD_CAT_ID":53996,"ELEMENT_SET_NO":999,"REV_AT_EPOCH":16588,"BSTAR":1.6747e-5,"MEAN_MOTION_DOT":-2.1e-7,"MEAN_MOTION_DDOT":0},{"OBJECT_NAME":"STARLINK-5130","OBJECT_ID":"2022-125AK","EPOCH":"2025-10-02T22:22:25.655232","MEAN_MOTION":15.08841146,"ECCENTRICITY":0.00017264,"INCLINATION":53.216,"RA_OF_ASC_NODE":192.5485,"ARG_OF_PERICENTER":82.4863,"MEAN_ANOMALY":277.6325,"EPHEMERIS_TYPE":0,"CLASSIFICATION_TYPE":"U","NORAD_CAT_ID":53997,"ELEMENT_SET_NO":999,"REV_AT_EPOCH":16578,"BSTAR":0.00021679194,"MEAN_MOTION_DOT":3.164e-5,"MEAN_MOTION_DDOT":0},{"OBJECT_NAME":"STARLINK-5128","OBJECT_ID":"2022-125AL","EPOCH":"2025-10-04T17:53:32.336160","MEAN_MOTION":15.08838082,"ECCENTRICITY":0.0001443,"INCLINATION":53.2179,"RA_OF_ASC_NODE":193.9424,"ARG_OF_PERICENTER":90.182,"MEAN_ANOMALY":269.9338,"EPHEMERIS_TYPE":0,"CLASSIFICATION_TYPE":"U","NORAD_CAT_ID":53998,"ELEMENT_SET_NO":999,"REV_AT_EPOCH":16592,"BSTAR":7.3646e-5,"MEAN_MOTION_DOT":8.84e-6,"MEAN_MOTION_DDOT":0},{"OBJECT_NAME":"STARLINK-5079","OBJECT_ID":"2022-125AM","EPOCH":"2025-10-04T18:14:46.043232","MEAN_MOTION":15.0883653,"ECCENTRICITY":0.0001376,"INCLINATION":53.2168,"RA_OF_ASC_NODE":194.0352,"ARG_OF_PERICENTER":80.4931,"MEAN_ANOMALY":279.6217,"EPHEMERIS_TYPE":0,"CLASSIFICATION_TYPE":"U","NORAD_CAT_ID":53999,"ELEMENT_SET_NO":999,"REV_AT_EPOCH":16592,"BSTAR":9.0239e-5,"MEAN_MOTION_DOT":1.148e-5,"MEAN_MOTION_DDOT":0},{"OBJECT_NAME":"STARLINK-5088","OBJECT_ID":"2022-125AN","EPOCH":"2025-10-04T10:51:00.596736","MEAN_MOTION":15.08833025,"ECCENTRICITY":0.0001475,"INCLINATION":53.2168,"RA_OF_ASC_NODE":185.686,"ARG_OF_PERICENTER":87.7059,"MEAN_ANOMALY":272.4102,"EPHEMERIS_TYPE":0,"CLASSIFICATION_TYPE":"U","NORAD_CAT_ID":54000,"ELEMENT_SET_NO":999,"REV_AT_EPOCH":16601,"BSTAR":3.3901e-5,"MEAN_MOTION_DOT":2.52e-6,"MEAN_MOTION_DDOT":0},{"OBJECT_NAME":"STARLINK-5109","OBJECT_ID":"2022-125AQ","EPOCH":"2025-10-04T11:22:43.127328","MEAN_MOTION":15.08839391,"ECCENTRICITY":0.000141,"INCLINATION":53.2157,"RA_OF_ASC_NODE":185.139,"ARG_OF_PERICENTER":94.3685,"MEAN_ANOMALY":265.7468,"EPHEMERIS_TYPE":0,"CLASSIFICATION_TYPE":"U","NORAD_CAT_ID":54002,"ELEMENT_SET_NO":999,"REV_AT_EPOCH":16602,"BSTAR":-7.8798e-6,"MEAN_MOTION_DOT":-4.13e-6,"MEAN_MOTION_DDOT":0},{"OBJECT_NAME":"STARLINK-5114","OBJECT_ID":"2022-125AR","EPOCH":"2025-10-04T17:58:51.013056","MEAN_MOTION":15.08838755,"ECCENTRICITY":0.0001337,"INCLINATION":53.2168,"RA_OF_ASC_NODE":193.9658,"ARG_OF_PERICENTER":89.4607,"MEAN_ANOMALY":270.6539,"EPHEMERIS_TYPE":0,"CLASSIFICATION_TYPE":"U","NORAD_CAT_ID":54003,"ELEMENT_SET_NO":999,"REV_AT_EPOCH":16592,"BSTAR":6.9018e-5,"MEAN_MOTION_DOT":8.11e-6,"MEAN_MOTION_DDOT":0},{"OBJECT_NAME":"STARLINK-5129","OBJECT_ID":"2022-125AS","EPOCH":"2025-10-04T17:42:55.410048","MEAN_MOTION":15.08859696,"ECCENTRICITY":0.0002426,"INCLINATION":53.2182,"RA_OF_ASC_NODE":193.8963,"ARG_OF_PERICENTER":108.9938,"MEAN_ANOMALY":251.1317,"EPHEMERIS_TYPE":0,"CLASSIFICATION_TYPE":"U","NORAD_CAT_ID":54004,"ELEMENT_SET_NO":999,"REV_AT_EPOCH":16592,"BSTAR":-0.00017383,"MEAN_MOTION_DOT":-3.055e-5,"MEAN_MOTION_DDOT":0},{"OBJECT_NAME":"STARLINK-5135","OBJECT_ID":"2022-125AT","EPOCH":"2025-10-03T11:35:54.201408","MEAN_MOTION":15.08844049,"ECCENTRICITY":0.0001324,"INCLINATION":53.2156,"RA_OF_ASC_NODE":199.5662,"ARG_OF_PERICENTER":86.6219,"MEAN_ANOMALY":273.4925,"EPHEMERIS_TYPE":0,"CLASSIFICATION_TYPE":"U","NORAD_CAT_ID":54005,"ELEMENT_SET_NO":999,"REV_AT_EPOCH":16573,"BSTAR":0.00014244339,"MEAN_MOTION_DOT":1.98e-5,"MEAN_MOTION_DDOT":0}]
